{
  "type": "FeatureCollection",
  "features": [
    {
      "type": "Feature",
      "properties": {
        "norad_id": 35594,
        "name": "COSMOS 2251 DEB",
        "group": "cosmos-2251-debris",
        "lat": -73.22936012528375,
        "lon": 4.8817847594354555,
        "alt_km": 596.378209117478,
        "timestamp": "2025-12-10T21:43:22.487412+00:00",
        "meta_object_name": "COSMOS 2251 DEB",
        "meta_object_id": "1993-036AMM",
        "meta_epoch": "2025-12-09T02:34:25.968000",
        "meta_mean_motion": 14.87749225,
        "meta_eccentricity": 0.00305448,
        "meta_inclination": 73.8074,
        "meta_ra_of_asc_node": 113.8828,
        "meta_arg_of_pericenter": 225.3103,
        "meta_mean_anomaly": 134.5588,
        "meta_ephemeris_type": 0,
        "meta_classification_type": "U",
        "meta_norad_cat_id": 35594,
        "meta_element_set_no": 999,
        "meta_rev_at_epoch": 88131,
        "meta_bstar": 0.0022507147,
        "meta_mean_motion_dot": 0.00020735,
        "meta_mean_motion_ddot": 0,
        "tle_line1": "1 35594U 93036AMM 25343.10724500  .00020735  00000+0  22507-2 0  9997",
        "tle_line2": "2 35594  73.8074 113.8828 0030544 225.3103 134.5588 14.87749225881314"
      },
      "geometry": {
        "type": "Point",
        "coordinates": [
          4.8817847594354555,
          -73.22936012528375
        ]
      }
    },
    {
      "type": "Feature",
      "properties": {
        "norad_id": 35602,
        "name": "COSMOS 2251 DEB",
        "group": "cosmos-2251-debris",
        "lat": 60.536062357438915,
        "lon": -143.30316328887412,
        "alt_km": 515.9244094756132,
        "timestamp": "2025-12-10T21:43:22.487422+00:00",
        "meta_object_name": "COSMOS 2251 DEB",
        "meta_object_id": "1993-036AMV",
        "meta_epoch": "2025-12-10T13:45:21.225312",
        "meta_mean_motion": 15.34956849,
        "meta_eccentricity": 0.00901627,
        "meta_inclination": 73.994,
        "meta_ra_of_asc_node": 186.8713,
        "meta_arg_of_pericenter": 253.1125,
        "meta_mean_anomaly": 138.176,
        "meta_ephemeris_type": 0,
        "meta_classification_type": "U",
        "meta_norad_cat_id": 35602,
        "meta_element_set_no": 999,
        "meta_rev_at_epoch": 90058,
        "meta_bstar": 0.00063592524,
        "meta_mean_motion_dot": 0.00024683,
        "meta_mean_motion_ddot": 0,
        "tle_line1": "1 35602U 93036AMV 25344.57316233  .00024683  00000+0  63593-3 0  9996",
        "tle_line2": "2 35602  73.9940 186.8713 0090162 253.1125 138.1760 15.34956849900583"
      },
      "geometry": {
        "type": "Point",
        "coordinates": [
          -143.30316328887412,
          60.536062357438915
        ]
      }
    },
    {
      "type": "Feature",
      "properties": {
        "norad_id": 35605,
        "name": "COSMOS 2251 DEB",
        "group": "cosmos-2251-debris",
        "lat": 55.24314599869809,
        "lon": 135.943161608957,
        "alt_km": 479.12864342272496,
        "timestamp": "2025-12-10T21:43:22.487432+00:00",
        "meta_object_name": "COSMOS 2251 DEB",
        "meta_object_id": "1993-036AMY",
        "meta_epoch": "2025-12-08T17:29:07.135584",
        "meta_mean_motion": 15.31836492,
        "meta_eccentricity": 0.00282066,
        "meta_inclination": 73.8723,
        "meta_ra_of_asc_node": 345.2823,
        "meta_arg_of_pericenter": 280.9051,
        "meta_mean_anomaly": 78.8978,
        "meta_ephemeris_type": 0,
        "meta_classification_type": "U",
        "meta_norad_cat_id": 35605,
        "meta_element_set_no": 999,
        "meta_rev_at_epoch": 65910,
        "meta_bstar": 0.0070125726,
        "meta_mean_motion_dot": 0.002247,
        "meta_mean_motion_ddot": 0,
        "tle_line1": "1 35605U 93036AMY 25342.72855481  .00224700  00000+0  70126-2 0  9998",
        "tle_line2": "2 35605  73.8723 345.2823 0028206 280.9051  78.8978 15.31836492659101"
      },
      "geometry": {
        "type": "Point",
        "coordinates": [
          135.943161608957,
          55.24314599869809
        ]
      }
    },
    {
      "type": "Feature",
      "properties": {
        "norad_id": 35606,
        "name": "COSMOS 2251 DEB",
        "group": "cosmos-2251-debris",
        "lat": -7.9035544344671225,
        "lon": 11.411191301467662,
        "alt_km": 1329.348174539069,
        "timestamp": "2025-12-10T21:43:22.487443+00:00",
        "meta_object_name": "COSMOS 2251 DEB",
        "meta_object_id": "1993-036AMZ",
        "meta_epoch": "2025-12-09T08:10:26.094720",
        "meta_mean_motion": 13.41205491,
        "meta_eccentricity": 0.04577322,
        "meta_inclination": 73.8107,
        "meta_ra_of_asc_node": 16.2149,
        "meta_arg_of_pericenter": 222.4362,
        "meta_mean_anomaly": 134.0496,
        "meta_ephemeris_type": 0,
        "meta_classification_type": "U",
        "meta_norad_cat_id": 35606,
        "meta_element_set_no": 999,
        "meta_rev_at_epoch": 60994,
        "meta_bstar": 0.0014727579,
        "meta_mean_motion_dot": 1.492e-05,
        "meta_mean_motion_ddot": 0,
        "tle_line1": "1 35606U 93036AMZ 25343.34057980  .00001492  00000+0  14728-2 0  9993",
        "tle_line2": "2 35606  73.8107  16.2149 0457732 222.4362 134.0496 13.41205491609945"
      },
      "geometry": {
        "type": "Point",
        "coordinates": [
          11.411191301467662,
          -7.9035544344671225
        ]
      }
    },
    {
      "type": "Feature",
      "properties": {
        "norad_id": 35611,
        "name": "COSMOS 2251 DEB",
        "group": "cosmos-2251-debris",
        "lat": -34.31208056701272,
        "lon": 171.59934102149583,
        "alt_km": 652.4295435512613,
        "timestamp": "2025-12-10T21:43:22.487453+00:00",
        "meta_object_name": "COSMOS 2251 DEB",
        "meta_object_id": "1993-036ANE",
        "meta_epoch": "2025-12-09T23:03:41.124096",
        "meta_mean_motion": 14.727217,
        "meta_eccentricity": 0.00218182,
        "meta_inclination": 74.0195,
        "meta_ra_of_asc_node": 184.7172,
        "meta_arg_of_pericenter": 258.0606,
        "meta_mean_anomaly": 101.812,
        "meta_ephemeris_type": 0,
        "meta_classification_type": "U",
        "meta_norad_cat_id": 35611,
        "meta_element_set_no": 999,
        "meta_rev_at_epoch": 87249,
        "meta_bstar": 0.003128691,
        "meta_mean_motion_dot": 0.00020072,
        "meta_mean_motion_ddot": 0,
        "tle_line1": "1 35611U 93036ANE 25343.96089264  .00020072  00000+0  31287-2 0  9991",
        "tle_line2": "2 35611  74.0195 184.7172 0021818 258.0606 101.8120 14.72721700872495"
      },
      "geometry": {
        "type": "Point",
        "coordinates": [
          171.59934102149583,
          -34.31208056701272
        ]
      }
    },
    {
      "type": "Feature",
      "properties": {
        "norad_id": 35614,
        "name": "COSMOS 2251 DEB",
        "group": "cosmos-2251-debris",
        "lat": 55.21460283603862,
        "lon": 126.55280632251721,
        "alt_km": 641.922014856691,
        "timestamp": "2025-12-10T21:43:22.487463+00:00",
        "meta_object_name": "COSMOS 2251 DEB",
        "meta_object_id": "1993-036ANH",
        "meta_epoch": "2025-12-10T08:04:29.113248",
        "meta_mean_motion": 14.66977298,
        "meta_eccentricity": 0.00759282,
        "meta_inclination": 73.9593,
        "meta_ra_of_asc_node": 332.1225,
        "meta_arg_of_pericenter": 187.1902,
        "meta_mean_anomaly": 172.8186,
        "meta_ephemeris_type": 0,
        "meta_classification_type": "U",
        "meta_norad_cat_id": 35614,
        "meta_element_set_no": 999,
        "meta_rev_at_epoch": 87694,
        "meta_bstar": 0.0012622224,
        "meta_mean_motion_dot": 7.356e-05,
        "meta_mean_motion_ddot": 0,
        "tle_line1": "1 35614U 93036ANH 25344.33644807  .00007356  00000+0  12622-2 0  9998",
        "tle_line2": "2 35614  73.9593 332.1225 0075928 187.1902 172.8186 14.66977298876940"
      },
      "geometry": {
        "type": "Point",
        "coordinates": [
          126.55280632251721,
          55.21460283603862
        ]
      }
    },
    {
      "type": "Feature",
      "properties": {
        "norad_id": 35645,
        "name": "COSMOS 2251 DEB",
        "group": "cosmos-2251-debris",
        "lat": -15.538536051123302,
        "lon": 86.58093576317847,
        "alt_km": 748.4584915126316,
        "timestamp": "2025-12-10T21:43:22.487473+00:00",
        "meta_object_name": "COSMOS 2251 DEB",
        "meta_object_id": "1993-036ANL",
        "meta_epoch": "2025-12-10T15:09:14.337216",
        "meta_mean_motion": 14.45530284,
        "meta_eccentricity": 0.00695766,
        "meta_inclination": 73.9636,
        "meta_ra_of_asc_node": 91.6803,
        "meta_arg_of_pericenter": 249.709,
        "meta_mean_anomaly": 109.658,
        "meta_ephemeris_type": 0,
        "meta_classification_type": "U",
        "meta_norad_cat_id": 35645,
        "meta_element_set_no": 999,
        "meta_rev_at_epoch": 86741,
        "meta_bstar": 0.003750548,
        "meta_mean_motion_dot": 0.00013631,
        "meta_mean_motion_ddot": 0,
        "tle_line1": "1 35645U 93036ANL 25344.63141594  .00013631  00000+0  37505-2 0  9990",
        "tle_line2": "2 35645  73.9636  91.6803 0069576 249.7090 109.6580 14.45530284867411"
      },
      "geometry": {
        "type": "Point",
        "coordinates": [
          86.58093576317847,
          -15.538536051123302
        ]
      }
    }
  ]
}